CCSDS_OMM_VERS = 2.0
CREATION_DATE  = 
ORIGINATOR     = 

OBJECT_NAME    = CZ-2C R/B
OBJECT_ID      = 2022-132E
CENTER_NAME    = EARTH
REF_FRAME      = TEME
TIME_SYSTEM    = UTC
MEAN_ELEMENT_THEORY = SGP/SGP4

EPOCH          = 2026-02-13T21:43:47.355744
MEAN_MOTION    = 15.59747196
ECCENTRICITY   = .00190215
INCLINATION    = 97.2958
RA_OF_ASC_NODE = 47.5426
ARG_OF_PERICENTER = 170.0330
MEAN_ANOMALY   = 190.1308

EPHEMERIS_TYPE = 0
CLASSIFICATION_TYPE = U
NORAD_CAT_ID   = 54039
ELEMENT_SET_NO = 999
REV_AT_EPOCH   = 18666
BSTAR          = .47614167E-3
MEAN_MOTION_DOT = .38425E-3
MEAN_MOTION_DDOT = 0

CCSDS_OMM_VERS = 2.0
CREATION_DATE  = 
ORIGINATOR     = 

OBJECT_NAME    = GSLV R/B
OBJECT_ID      = 2022-138AN
CENTER_NAME    = EARTH
REF_FRAME      = TEME
TIME_SYSTEM    = UTC
MEAN_ELEMENT_THEORY = SGP/SGP4

EPOCH          = 2026-02-13T22:02:53.208096
MEAN_MOTION    = 14.96591361
ECCENTRICITY   = .00197373
INCLINATION    = 87.3868
RA_OF_ASC_NODE = 174.3159
ARG_OF_PERICENTER = 234.3690
MEAN_ANOMALY   = 125.5704

EPHEMERIS_TYPE = 0
CLASSIFICATION_TYPE = U
NORAD_CAT_ID   = 54149
ELEMENT_SET_NO = 999
REV_AT_EPOCH   = 18037
BSTAR          = .27411806E-3
MEAN_MOTION_DOT = .3159E-4
MEAN_MOTION_DDOT = 0

CCSDS_OMM_VERS = 2.0
CREATION_DATE  = 
ORIGINATOR     = 

OBJECT_NAME    = XRISM
OBJECT_ID      = 2023-137A
CENTER_NAME    = EARTH
REF_FRAME      = TEME
TIME_SYSTEM    = UTC
MEAN_ELEMENT_THEORY = SGP/SGP4

EPOCH          = 2026-02-13T11:14:36.424896
MEAN_MOTION    = 15.11199125
ECCENTRICITY   = .00080943
INCLINATION    = 31.0027
RA_OF_ASC_NODE = 80.2852
ARG_OF_PERICENTER = 157.9851
MEAN_ANOMALY   = 202.1136

EPHEMERIS_TYPE = 0
CLASSIFICATION_TYPE = U
NORAD_CAT_ID   = 57800
ELEMENT_SET_NO = 999
REV_AT_EPOCH   = 13412
BSTAR          = .37023339E-3
MEAN_MOTION_DOT = .6474E-4
MEAN_MOTION_DDOT = 0

CCSDS_OMM_VERS = 2.0
CREATION_DATE  = 
ORIGINATOR     = 

OBJECT_NAME    = ACS3
OBJECT_ID      = 2024-077B
CENTER_NAME    = EARTH
REF_FRAME      = TEME
TIME_SYSTEM    = UTC
MEAN_ELEMENT_THEORY = SGP/SGP4

EPOCH          = 2026-02-13T19:10:54.782688
MEAN_MOTION    = 13.88605461
ECCENTRICITY   = .00466508
INCLINATION    = 97.2195
RA_OF_ASC_NODE = 351.2822
ARG_OF_PERICENTER = 148.9595
MEAN_ANOMALY   = 211.4340

EPHEMERIS_TYPE = 0
CLASSIFICATION_TYPE = U
NORAD_CAT_ID   = 59588
ELEMENT_SET_NO = 999
REV_AT_EPOCH   = 9088
BSTAR          = .16918416E-1
MEAN_MOTION_DOT = .20557E-3
MEAN_MOTION_DDOT = 0

CCSDS_OMM_VERS = 2.0
CREATION_DATE  = 
ORIGINATOR     = 

OBJECT_NAME    = SZ-21 MODULE
OBJECT_ID      = 2025-246C
CENTER_NAME    = EARTH
REF_FRAME      = TEME
TIME_SYSTEM    = UTC
MEAN_ELEMENT_THEORY = SGP/SGP4

EPOCH          = 2026-02-13T05:26:33.249408
MEAN_MOTION    = 15.66676295
ECCENTRICITY   = .0002368
INCLINATION    = 41.4764
RA_OF_ASC_NODE = 353.7289
ARG_OF_PERICENTER = 294.7377
MEAN_ANOMALY   = 65.3218

EPHEMERIS_TYPE = 0
CLASSIFICATION_TYPE = U
NORAD_CAT_ID   = 66515
ELEMENT_SET_NO = 999
REV_AT_EPOCH   = 1423
BSTAR          = .32518E-3
MEAN_MOTION_DOT = .34969E-3
MEAN_MOTION_DDOT = 0

