CZ-2C R/B               
1 54039U 22132E   26044.90540921  .00038425  00000+0  47614-3 0  9993
2 54039  97.2958  47.5426 0019021 170.0330 190.1308 15.59747196186661
GSLV R/B                
1 54149U 22138AN  26044.91867139  .00003159  00000+0  27412-3 0  9995
2 54149  87.3868 174.3159 0019737 234.3690 125.5704 14.96591361180377
XRISM                   
1 57800U 23137A   26044.46847714  .00006474  00000+0  37023-3 0  9991
2 57800  31.0027  80.2852 0008094 157.9851 202.1136 15.11199125134128
ACS3                    
1 59588U 24077B   26044.79924517  .00020557  00000+0  16918-1 0  9999
2 59588  97.2195 351.2822 0046650 148.9595 211.4340 13.88605461 90887
SZ-21 MODULE            
1 66515U 25246C   26044.22677372  .00034969  00000+0  32518-3 0  9996
2 66515  41.4764 353.7289 0002368 294.7377  65.3218 15.66676295 14234
